IRIDE FM6               
1 66700U 25276AL  25356.28968867  .00012319  00000+0  60502-3 0  9997
2 66700  97.4423  67.9159 0001580 165.3100 194.8180 15.18205713  3576
IRIDE FM7               
1 66701U 25276AM  25356.50035692  .00013341  00000+0  67059-3 0  9994
2 66701  97.4422  68.0936 0003072 258.9796 101.1093 15.17373833  3605
IRIDE FM8               
1 66702U 25276AN  25356.36829156  .00012570  00000+0  63199-3 0  9999
2 66702  97.4401  67.9567 0002915 266.3809  93.7091 15.17379588  3588
PELICAN-6               
1 66703U 25276AP  25356.49888452  .00010398  00000+0  52423-3 0  9992
2 66703  97.4409  68.0905 0001024 244.0546 116.0582 15.17333386  3609
FLOCK 4H-1              
1 66704U 25276AQ  25356.48883199  .00010160  00000+0  50158-3 0  9995
2 66704  97.4385  68.0942 0001828 172.7506 187.3755 15.18075389  3609
FLOCK 4H-2              
1 66705U 25276AR  25356.48838010  .00012019  00000+0  59174-3 0  9990
2 66705  97.4379  68.0948 0001265 162.0552 198.0727 15.18127317  3604
FLOCK 4H-3              
1 66706U 25276AS  25356.16849164  .00005444  00000+0  27517-3 0  9998
2 66706  97.4448  67.7803 0002866 250.0382 110.0543 15.17466009  3552
FLOCK 4H-4              
1 66707U 25276AT  25356.50205601  .00010446  00000+0  52851-3 0  9996
2 66707  97.4433  68.0940 0003628 254.6123 105.4710 15.17204393  3609
FLOCK 4H-5              
1 66708U 25276AU  25356.42128237  .00012098  00000+0  59500-3 0  9990
2 66708  97.4386  68.0345 0001191 130.2403 229.8935 15.18163168  3592
FLOCK 4H-6              
1 66709U 25276AV  25356.49078242  .00008782  00000+0  43620-3 0  9999
2 66709  97.4435  68.1129 0002655 209.6515 150.4568 15.17903075  3601
FLOCK 4H-7              
1 66710U 25276AW  25356.49804760  .00006058  00000+0  30569-3 0  9995
2 66710  97.4392  68.0831 0001072 297.9139  62.1986 15.17478885  3607
FLOCK 4H-8              
1 66711U 25276AX  25356.56421287  .00011544  00000+0  57914-3 0  9992
2 66711  97.4432  68.1683 0002463 270.5774  89.5178 15.17477943  3617
