CCSDS_OMM_VERS = 2.0
CREATION_DATE  = 
ORIGINATOR     = 

OBJECT_NAME    = IRIDE FM6
OBJECT_ID      = 2025-276AL
CENTER_NAME    = EARTH
REF_FRAME      = TEME
TIME_SYSTEM    = UTC
MEAN_ELEMENT_THEORY = SGP/SGP4

EPOCH          = 2025-12-22T06:57:09.101088
MEAN_MOTION    = 15.18205713
ECCENTRICITY   = .00015808
INCLINATION    = 97.4423
RA_OF_ASC_NODE = 67.9159
ARG_OF_PERICENTER = 165.3100
MEAN_ANOMALY   = 194.8180

EPHEMERIS_TYPE = 0
CLASSIFICATION_TYPE = U
NORAD_CAT_ID   = 66700
ELEMENT_SET_NO = 999
REV_AT_EPOCH   = 357
BSTAR          = .60502053E-3
MEAN_MOTION_DOT = .12319E-3
MEAN_MOTION_DDOT = 0

CCSDS_OMM_VERS = 2.0
CREATION_DATE  = 
ORIGINATOR     = 

OBJECT_NAME    = IRIDE FM7
OBJECT_ID      = 2025-276AM
CENTER_NAME    = EARTH
REF_FRAME      = TEME
TIME_SYSTEM    = UTC
MEAN_ELEMENT_THEORY = SGP/SGP4

EPOCH          = 2025-12-22T12:00:30.837888
MEAN_MOTION    = 15.17373833
ECCENTRICITY   = .00030726
INCLINATION    = 97.4422
RA_OF_ASC_NODE = 68.0936
ARG_OF_PERICENTER = 258.9796
MEAN_ANOMALY   = 101.1093

EPHEMERIS_TYPE = 0
CLASSIFICATION_TYPE = U
NORAD_CAT_ID   = 66701
ELEMENT_SET_NO = 999
REV_AT_EPOCH   = 360
BSTAR          = .67058535E-3
MEAN_MOTION_DOT = .13341E-3
MEAN_MOTION_DDOT = 0

CCSDS_OMM_VERS = 2.0
CREATION_DATE  = 
ORIGINATOR     = 

OBJECT_NAME    = IRIDE FM8
OBJECT_ID      = 2025-276AN
CENTER_NAME    = EARTH
REF_FRAME      = TEME
TIME_SYSTEM    = UTC
MEAN_ELEMENT_THEORY = SGP/SGP4

EPOCH          = 2025-12-22T08:50:20.390784
MEAN_MOTION    = 15.17379588
ECCENTRICITY   = .00029157
INCLINATION    = 97.4401
RA_OF_ASC_NODE = 67.9567
ARG_OF_PERICENTER = 266.3809
MEAN_ANOMALY   = 93.7091

EPHEMERIS_TYPE = 0
CLASSIFICATION_TYPE = U
NORAD_CAT_ID   = 66702
ELEMENT_SET_NO = 999
REV_AT_EPOCH   = 358
BSTAR          = .63198534E-3
MEAN_MOTION_DOT = .1257E-3
MEAN_MOTION_DDOT = 0

CCSDS_OMM_VERS = 2.0
CREATION_DATE  = 
ORIGINATOR     = 

OBJECT_NAME    = PELICAN-6
OBJECT_ID      = 2025-276AP
CENTER_NAME    = EARTH
REF_FRAME      = TEME
TIME_SYSTEM    = UTC
MEAN_ELEMENT_THEORY = SGP/SGP4

EPOCH          = 2025-12-22T11:58:23.622528
MEAN_MOTION    = 15.17333386
ECCENTRICITY   = .00010243
INCLINATION    = 97.4409
RA_OF_ASC_NODE = 68.0905
ARG_OF_PERICENTER = 244.0546
MEAN_ANOMALY   = 116.0582

EPHEMERIS_TYPE = 0
CLASSIFICATION_TYPE = U
NORAD_CAT_ID   = 66703
ELEMENT_SET_NO = 999
REV_AT_EPOCH   = 360
BSTAR          = .52423327E-3
MEAN_MOTION_DOT = .10398E-3
MEAN_MOTION_DDOT = 0

CCSDS_OMM_VERS = 2.0
CREATION_DATE  = 
ORIGINATOR     = 

OBJECT_NAME    = FLOCK 4H-1
OBJECT_ID      = 2025-276AQ
CENTER_NAME    = EARTH
REF_FRAME      = TEME
TIME_SYSTEM    = UTC
MEAN_ELEMENT_THEORY = SGP/SGP4

EPOCH          = 2025-12-22T11:43:55.083936
MEAN_MOTION    = 15.18075389
ECCENTRICITY   = .00018285
INCLINATION    = 97.4385
RA_OF_ASC_NODE = 68.0942
ARG_OF_PERICENTER = 172.7506
MEAN_ANOMALY   = 187.3755

EPHEMERIS_TYPE = 0
CLASSIFICATION_TYPE = U
NORAD_CAT_ID   = 66704
ELEMENT_SET_NO = 999
REV_AT_EPOCH   = 360
BSTAR          = .50158442E-3
MEAN_MOTION_DOT = .1016E-3
MEAN_MOTION_DDOT = 0

CCSDS_OMM_VERS = 2.0
CREATION_DATE  = 
ORIGINATOR     = 

OBJECT_NAME    = FLOCK 4H-2
OBJECT_ID      = 2025-276AR
CENTER_NAME    = EARTH
REF_FRAME      = TEME
TIME_SYSTEM    = UTC
MEAN_ELEMENT_THEORY = SGP/SGP4

EPOCH          = 2025-12-22T11:43:16.040640
MEAN_MOTION    = 15.18127317
ECCENTRICITY   = .00012656
INCLINATION    = 97.4379
RA_OF_ASC_NODE = 68.0948
ARG_OF_PERICENTER = 162.0552
MEAN_ANOMALY   = 198.0727

EPHEMERIS_TYPE = 0
CLASSIFICATION_TYPE = U
NORAD_CAT_ID   = 66705
ELEMENT_SET_NO = 999
REV_AT_EPOCH   = 360
BSTAR          = .59174248E-3
MEAN_MOTION_DOT = .12019E-3
MEAN_MOTION_DDOT = 0

CCSDS_OMM_VERS = 2.0
CREATION_DATE  = 
ORIGINATOR     = 

OBJECT_NAME    = FLOCK 4H-3
OBJECT_ID      = 2025-276AS
CENTER_NAME    = EARTH
REF_FRAME      = TEME
TIME_SYSTEM    = UTC
MEAN_ELEMENT_THEORY = SGP/SGP4

EPOCH          = 2025-12-22T04:02:37.677696
MEAN_MOTION    = 15.17466009
ECCENTRICITY   = .00028667
INCLINATION    = 97.4448
RA_OF_ASC_NODE = 67.7803
ARG_OF_PERICENTER = 250.0382
MEAN_ANOMALY   = 110.0543

EPHEMERIS_TYPE = 0
CLASSIFICATION_TYPE = U
NORAD_CAT_ID   = 66706
ELEMENT_SET_NO = 999
REV_AT_EPOCH   = 355
BSTAR          = .27517027E-3
MEAN_MOTION_DOT = .5444E-4
MEAN_MOTION_DDOT = 0

CCSDS_OMM_VERS = 2.0
CREATION_DATE  = 
ORIGINATOR     = 

OBJECT_NAME    = FLOCK 4H-4
OBJECT_ID      = 2025-276AT
CENTER_NAME    = EARTH
REF_FRAME      = TEME
TIME_SYSTEM    = UTC
MEAN_ELEMENT_THEORY = SGP/SGP4

EPOCH          = 2025-12-22T12:02:57.639264
MEAN_MOTION    = 15.17204393
ECCENTRICITY   = .00036285
INCLINATION    = 97.4433
RA_OF_ASC_NODE = 68.0940
ARG_OF_PERICENTER = 254.6123
MEAN_ANOMALY   = 105.4710

EPHEMERIS_TYPE = 0
CLASSIFICATION_TYPE = U
NORAD_CAT_ID   = 66707
ELEMENT_SET_NO = 999
REV_AT_EPOCH   = 360
BSTAR          = .52851164E-3
MEAN_MOTION_DOT = .10446E-3
MEAN_MOTION_DDOT = 0

CCSDS_OMM_VERS = 2.0
CREATION_DATE  = 
ORIGINATOR     = 

OBJECT_NAME    = FLOCK 4H-5
OBJECT_ID      = 2025-276AU
CENTER_NAME    = EARTH
REF_FRAME      = TEME
TIME_SYSTEM    = UTC
MEAN_ELEMENT_THEORY = SGP/SGP4

EPOCH          = 2025-12-22T10:06:38.796768
MEAN_MOTION    = 15.18163168
ECCENTRICITY   = .00011913
INCLINATION    = 97.4386
RA_OF_ASC_NODE = 68.0345
ARG_OF_PERICENTER = 130.2403
MEAN_ANOMALY   = 229.8935

EPHEMERIS_TYPE = 0
CLASSIFICATION_TYPE = U
NORAD_CAT_ID   = 66708
ELEMENT_SET_NO = 999
REV_AT_EPOCH   = 359
BSTAR          = .59499817E-3
MEAN_MOTION_DOT = .12098E-3
MEAN_MOTION_DDOT = 0

CCSDS_OMM_VERS = 2.0
CREATION_DATE  = 
ORIGINATOR     = 

OBJECT_NAME    = FLOCK 4H-6
OBJECT_ID      = 2025-276AV
CENTER_NAME    = EARTH
REF_FRAME      = TEME
TIME_SYSTEM    = UTC
MEAN_ELEMENT_THEORY = SGP/SGP4

EPOCH          = 2025-12-22T11:46:43.601088
MEAN_MOTION    = 15.17903075
ECCENTRICITY   = .00026554
INCLINATION    = 97.4435
RA_OF_ASC_NODE = 68.1129
ARG_OF_PERICENTER = 209.6515
MEAN_ANOMALY   = 150.4568

EPHEMERIS_TYPE = 0
CLASSIFICATION_TYPE = U
NORAD_CAT_ID   = 66709
ELEMENT_SET_NO = 999
REV_AT_EPOCH   = 360
BSTAR          = .43620223E-3
MEAN_MOTION_DOT = .8782E-4
MEAN_MOTION_DDOT = 0

CCSDS_OMM_VERS = 2.0
CREATION_DATE  = 
ORIGINATOR     = 

OBJECT_NAME    = FLOCK 4H-7
OBJECT_ID      = 2025-276AW
CENTER_NAME    = EARTH
REF_FRAME      = TEME
TIME_SYSTEM    = UTC
MEAN_ELEMENT_THEORY = SGP/SGP4

EPOCH          = 2025-12-22T11:57:11.312640
MEAN_MOTION    = 15.17478885
ECCENTRICITY   = .00010727
INCLINATION    = 97.4392
RA_OF_ASC_NODE = 68.0831
ARG_OF_PERICENTER = 297.9139
MEAN_ANOMALY   = 62.1986

EPHEMERIS_TYPE = 0
CLASSIFICATION_TYPE = U
NORAD_CAT_ID   = 66710
ELEMENT_SET_NO = 999
REV_AT_EPOCH   = 360
BSTAR          = .30568752E-3
MEAN_MOTION_DOT = .6058E-4
MEAN_MOTION_DDOT = 0

CCSDS_OMM_VERS = 2.0
CREATION_DATE  = 
ORIGINATOR     = 

OBJECT_NAME    = FLOCK 4H-8
OBJECT_ID      = 2025-276AX
CENTER_NAME    = EARTH
REF_FRAME      = TEME
TIME_SYSTEM    = UTC
MEAN_ELEMENT_THEORY = SGP/SGP4

EPOCH          = 2025-12-22T13:32:27.991968
MEAN_MOTION    = 15.17477943
ECCENTRICITY   = .00024634
INCLINATION    = 97.4432
RA_OF_ASC_NODE = 68.1683
ARG_OF_PERICENTER = 270.5774
MEAN_ANOMALY   = 89.5178

EPHEMERIS_TYPE = 0
CLASSIFICATION_TYPE = U
NORAD_CAT_ID   = 66711
ELEMENT_SET_NO = 999
REV_AT_EPOCH   = 361
BSTAR          = .57914363E-3
MEAN_MOTION_DOT = .11544E-3
MEAN_MOTION_DDOT = 0

